NORAD_CAT_ID,OBJECT_NAME,OBJECT_TYPE,EPOCH,MEAN_MOTION,ECCENTRICITY,INCLINATION,RA_OF_ASC_NODE,ARG_OF_PERICENTER,MEAN_ANOMALY,BSTAR,MEAN_MOTION_DOT,MEAN_MOTION_DDOT,TLE_LINE0,TLE_LINE1,TLE_LINE2,SEMIMAJOR_AXIS,PERIOD,APOGEE,PERIGEE,DECAYED
53838.0,STARLINK-4773,PAYLOAD,2023-06-28 23:51:16,15.08848035,0.0001011,53.217,34.7593,84.4379,275.6728,0.00027536,4.098e-05,0.0,0 STARLINK-4773,1 53838U 22114W   23179.99394357  .00004098  00000-0  27536-3 0  9995,2 53838  53.2170  34.7593 0001011  84.4379 275.6728 15.08848035 43776,6917.856,95.437,540.42,539.021,0.0
53838.0,STARLINK-4773,PAYLOAD,2023-06-29 18:55:54,15.0884653,0.0001098,53.2171,31.191,84.5496,275.5621,4.6066e-05,4.46e-06,0.0,0 STARLINK-4773,1 53838U 22114W   23180.78882268  .00000446  00000-0  46066-4 0  9990,2 53838  53.2171  31.1910 0001098  84.5496 275.5621 15.08846530 43899,6917.86,95.437,540.485,538.966,0.0
53838.0,STARLINK-4773,PAYLOAD,2023-06-30 20:22:04,15.08842963,0.0001071,53.217,26.4336,86.885,273.2265,5.2511e-05,5.48e-06,0.0,0 STARLINK-4773,1 53838U 22114W   23181.84866413  .00000548  00000-0  52511-4 0  9997,2 53838  53.2170  26.4336 0001071  86.8850 273.2265 15.08842963 44051,6917.871,95.437,540.477,538.995,0.0
53838.0,STARLINK-4773,PAYLOAD,2023-07-01 18:37:28,15.08836073,0.0001167,53.2176,22.2698,101.9675,258.1448,2.0305e-06,-2.56e-06,0.0,0 STARLINK-4773,1 53838U 22114W   23182.77602739 -.00000256  00000-0  20305-5 0  9993,2 53838  53.2176  22.2698 0001167 101.9675 258.1448 15.08836073 44197,6917.892,95.438,540.565,538.95,0.0
53838.0,STARLINK-4773,PAYLOAD,2023-07-01 23:23:37,15.08847229,0.0001085,53.2189,21.3792,99.8397,260.2718,-2.262e-06,-3.24e-06,0.0,0 STARLINK-4773,1 53838U 22114W   23182.97474289 -.00000324  00000-0 -22620-5 0  9991,2 53838  53.2189  21.3792 0001085  99.8397 260.2718 15.08847229 44224,6917.858,95.437,540.474,538.973,0.0
53838.0,STARLINK-4773,PAYLOAD,2023-07-02 13:42:06,15.08836354,0.0001069,53.2177,18.701,95.1575,264.954,5.3877e-05,5.7e-06,0.0,0 STARLINK-4773,1 53838U 22114W   23183.57091079  .00000570  00000-0  53877-4 0  9998,2 53838  53.2177  18.7010 0001069  95.1575 264.9540 15.08836354 44314,6917.892,95.438,540.496,539.017,0.0
53838.0,STARLINK-4773,PAYLOAD,2023-07-03 16:43:40,15.08838519,0.0001062,53.2182,13.6466,104.3484,255.7626,7.1126e-05,8.44e-06,0.0,0 STARLINK-4773,1 53838U 22114W   23184.69699201  .00000844  00000-0  71126-4 0  9994,2 53838  53.2182  13.6466 0001062 104.3484 255.7626 15.08838519 44480,6917.885,95.438,540.485,539.015,0.0
53838.0,STARLINK-4773,PAYLOAD,2023-07-04 21:20:36,15.08845061,0.0001094,53.2181,8.2944,84.8126,275.2991,0.00011347,1.519e-05,0.0,0 STARLINK-4773,1 53838U 22114W   23185.88930842  .00001519  00000-0  11347-3 0  9993,2 53838  53.2181   8.2944 0001094  84.8126 275.2991 15.08845061 44662,6917.865,95.437,540.487,538.973,0.0
53838.0,STARLINK-4773,PAYLOAD,2023-07-05 05:17:32,15.08839397,0.000111,53.2183,6.8077,85.5662,274.5457,7.4149e-05,8.92e-06,0.0,0 STARLINK-4773,1 53838U 22114W   23186.22051295  .00000892  00000-0  74149-4 0  9991,2 53838  53.2183   6.8077 0001110  85.5662 274.5457 15.08839397 44717,6917.882,95.438,540.515,538.979,0.0
53838.0,STARLINK-4773,PAYLOAD,2023-07-06 11:29:51,15.08842522,0.0001076,53.2179,1.1575,85.0001,275.1114,5.8524e-05,6.44e-06,0.0,0 STARLINK-4773,1 53838U 22114W   23187.47907204  .00000644  00000-0  58524-4 0  9993,2 53838  53.2179   1.1575 0001076  85.0001 275.1114 15.08842522 44908,6917.873,95.437,540.482,538.993,0.0
53838.0,STARLINK-4773,PAYLOAD,2023-07-06 21:02:09,15.08850449,0.0001111,53.2179,359.3735,84.5399,275.572,0.00012439,1.693e-05,0.0,0 STARLINK-4773,1 53838U 22114W   23187.87650454  .00001693  00000-0  12439-3 0  9998,2 53838  53.2179 359.3735 0001111  84.5399 275.5720 15.08850449 44968,6917.848,95.437,540.482,538.945,0.0
53838.0,STARLINK-4773,PAYLOAD,2023-07-07 17:42:11,15.08844049,0.000105,53.2175,355.5051,98.7599,261.3512,0.00012921,1.769e-05,0.0,0 STARLINK-4773,1 53838U 22114W   23188.73762740  .00001769  00000-0  12921-3 0  9996,2 53838  53.2175 355.5051 0001050  98.7599 261.3512 15.08844049 45090,6917.868,95.437,540.459,539.007,0.0
53838.0,STARLINK-4773,PAYLOAD,2023-07-08 17:32:58,15.08843696,0.0001046,53.2176,351.0458,97.1414,262.9697,5.9685e-05,6.62e-06,0.0,0 STARLINK-4773,1 53838U 22114W   23189.73122889  .00000662  00000-0  59685-4 0  9991,2 53838  53.2176 351.0458 0001046  97.1414 262.9697 15.08843696 45242,6917.869,95.437,540.458,539.01,0.0
53838.0,STARLINK-4773,PAYLOAD,2023-07-09 11:02:13,15.0883346,0.0001041,53.2182,347.7756,97.5973,262.5137,-9.0792e-06,-4.32e-06,0.0,0 STARLINK-4773,1 53838U 22114W   23190.45987786 -.00000432  00000-0 -90792-5 0  9999,2 53838  53.2182 347.7756 0001041  97.5973 262.5137 15.08833460 45356,6917.9,95.438,540.486,539.045,0.0
53838.0,STARLINK-4773,PAYLOAD,2023-07-10 02:56:04,15.08839483,0.0001096,53.2184,344.8023,96.7587,263.353,-8.9815e-06,-4.31e-06,0.0,0 STARLINK-4773,1 53838U 22114W   23191.12227425 -.00000431  00000-0 -89815-5 0  9994,2 53838  53.2184 344.8023 0001096  96.7587 263.3530 15.08839483 45453,6917.882,95.438,540.505,538.989,0.0
53838.0,STARLINK-4773,PAYLOAD,2023-07-11 02:46:52,15.08835048,0.0001512,53.2186,340.34,86.7161,273.4004,-1.1495e-05,-4.71e-06,0.0,0 STARLINK-4773,1 53838U 22114W   23192.11588005 -.00000471  00000-0 -11495-4 0  9990,2 53838  53.2186 340.3400 0001512  86.7161 273.4004 15.08835048 45603,6917.896,95.438,540.807,538.715,0.0
53838.0,STARLINK-4773,PAYLOAD,2023-07-12 10:34:35,15.0883419,7.75e-05,53.219,334.3922,98.5591,261.5489,1.024e-05,-1.25e-06,0.0,0 STARLINK-4773,1 53838U 22114W   23193.44068400 -.00000125  00000-0  10240-4 0  9991,2 53838  53.2190 334.3922 0000775  98.5591 261.5489 15.08834190 45802,6917.898,95.438,540.299,539.227,0.0
53838.0,STARLINK-4773,PAYLOAD,2023-07-12 16:56:06,15.08845208,0.0001129,53.2178,333.2054,94.4308,265.6813,0.00011436,1.533e-05,0.0,0 STARLINK-4773,1 53838U 22114W   23193.70563456  .00001533  00000-0  11436-3 0  9991,2 53838  53.2178 333.2054 0001129  94.4308 265.6813 15.08845208 45849,6917.864,95.437,540.51,538.948,0.0
53838.0,STARLINK-4773,PAYLOAD,2023-07-13 16:46:53,15.08845888,9.06e-05,53.2173,328.7435,78.3606,281.7488,3.0505e-05,1.98e-06,0.0,0 STARLINK-4773,1 53838U 22114W   23194.69923547  .00000198  00000-0  30505-4 0  9996,2 53838  53.2173 328.7435 0000906  78.3606 281.7488 15.08845888 45997,6917.862,95.437,540.354,539.101,0.0
53838.0,STARLINK-4773,PAYLOAD,2023-07-14 18:13:04,15.0885053,8.74e-05,53.2173,323.9847,79.9972,280.1119,0.00027457,4.086e-05,0.0,0 STARLINK-4773,1 53838U 22114W   23195.75907536  .00004086  00000-0  27457-3 0  9995,2 53838  53.2173 323.9847 0000874  79.9972 280.1119 15.08850530 46151,6917.848,95.437,540.318,539.109,0.0
53838.0,STARLINK-4773,PAYLOAD,2023-07-15 02:10:00,15.08843262,0.0001126,53.2162,322.4985,66.6878,293.4232,0.00012272,1.666e-05,0.0,0 STARLINK-4773,1 53838U 22114W   23196.09027830  .00001666  00000-0  12272-3 0  9993,2 53838  53.2162 322.4985 0001126  66.6878 293.4232 15.08843262 46208,6917.87,95.437,540.514,538.956,0.0
53838.0,STARLINK-4773,PAYLOAD,2023-07-15 11:42:19,15.08835086,0.0001003,53.2171,320.7146,82.7981,277.3125,7.236e-05,8.64e-06,0.0,0 STARLINK-4773,1 53838U 22114W   23196.48772355  .00000864  00000-0  72360-4 0  9999,2 53838  53.2171 320.7146 0001003  82.7981 277.3125 15.08835086 46269,6917.895,95.438,540.454,539.067,0.0
53838.0,STARLINK-4773,PAYLOAD,2023-07-15 18:03:51,15.0884799,0.000112,53.218,319.5272,86.1575,273.9546,0.00015588,2.194e-05,0.0,0 STARLINK-4773,1 53838U 22114W   23196.75267763  .00002194  00000-0  15588-3 0  9997,2 53838  53.2180 319.5272 0001120  86.1575 273.9546 15.08847990 46303,6917.856,95.437,540.496,538.946,0.0
53838.0,STARLINK-4773,PAYLOAD,2023-07-16 08:22:20,15.0882107,7.49e-05,53.2177,316.8498,77.3121,282.7955,-8.8726e-05,-1.699e-05,0.0,0 STARLINK-4773,1 53838U 22114W   23197.34885125 -.00001699  00000-0 -88726-4 0  9997,2 53838  53.2177 316.8498 0000749  77.3121 282.7955 15.08821070 46396,6917.938,95.439,540.321,539.285,0.0
53838.0,STARLINK-4773,PAYLOAD,2023-07-16 14:43:52,15.08839928,0.0001033,53.2177,315.66,87.4313,272.6797,9.7263e-05,1.26e-05,0.0,0 STARLINK-4773,1 53838U 22114W   23197.61380361  .00001260  00000-0  97263-4 0  9997,2 53838  53.2177 315.6600 0001033  87.4313 272.6797 15.08839928 46438,6917.881,95.438,540.46,539.031,0.0
53838.0,STARLINK-4773,PAYLOAD,2023-07-17 14:34:39,15.08851355,0.0001044,53.2174,311.2019,90.4978,269.6134,0.00022222,3.252e-05,0.0,0 STARLINK-4773,1 53838U 22114W   23198.60739770  .00003252  00000-0  22222-3 0  9994,2 53838  53.2174 311.2019 0001044  90.4978 269.6134 15.08851355 46589,6917.846,95.437,540.433,538.988,0.0
53838.0,STARLINK-4773,PAYLOAD,2023-07-18 11:14:40,15.08841797,0.0001101,53.2179,307.3359,87.6206,272.4912,7.7159e-06,-1.65e-06,0.0,0 STARLINK-4773,1 53838U 22114W   23199.46852215 -.00000165  00000-0  77159-5 0  9991,2 53838  53.2179 307.3359 0001101  87.6206 272.4912 15.08841797 46713,6917.875,95.437,540.502,538.978,0.0
53838.0,STARLINK-4773,PAYLOAD,2023-07-19 06:19:18,15.08827366,0.0001061,53.2177,303.7667,110.4674,249.6432,-0.00019396,-3.372e-05,0.0,0 STARLINK-4773,1 53838U 22114W   23200.26340583 -.00003372  00000-0 -19396-3 0  9993,2 53838  53.2177 303.7667 0001061 110.4674 249.6432 15.08827366 46834,6917.919,95.438,540.518,539.05,0.0
53838.0,STARLINK-4773,PAYLOAD,2023-07-20 15:42:24,15.08863032,0.0001079,53.2164,297.5223,102.4923,257.619,0.0011011,0.0001729,0.0,0 STARLINK-4773,1 53838U 22114W   23201.65444676  .00017290  00000-0  11011-2 0  9992,2 53838  53.2164 297.5223 0001079 102.4923 257.6190 15.08863032 47049,6917.81,95.436,540.421,538.929,0.0
53838.0,STARLINK-4773,PAYLOAD,2023-07-21 06:00:52,15.08857823,0.000118,53.2161,294.8461,89.7986,270.3141,0.0006723,0.00010433,0.0,0 STARLINK-4773,1 53838U 22114W   23202.25060614  .00010433  00000-0  67230-3 0  9992,2 53838  53.2161 294.8461 0001180  89.7986 270.3141 15.08857823 47138,6917.826,95.436,540.507,538.875,0.0
